{
    "links": {
        "self": "http://www.neowsapp.com/rest/v1/neo/3549638?api_key=iIulBulltgU6a56xZRHN4H3l9WmuAYTsLGpBGhQ2"
    },
    "id": "3549638",
    "neo_reference_id": "3549638",
    "name": "(2010 UH)",
    "designation": "2010 UH",
    "nasa_jpl_url": "http://ssd.jpl.nasa.gov/sbdb.cgi?sstr=3549638",
    "absolute_magnitude_h": 27.1,
    "estimated_diameter": {
        "kilometers": {
            "estimated_diameter_min": 0.0101054342,
            "estimated_diameter_max": 0.0225964377
        },
        "meters": {
            "estimated_diameter_min": 10.1054341542,
            "estimated_diameter_max": 22.5964377109
        },
        "miles": {
            "estimated_diameter_min": 0.0062792237,
            "estimated_diameter_max": 0.0140407711
        },
        "feet": {
            "estimated_diameter_min": 33.1543125905,
            "estimated_diameter_max": 74.1352966996
        }
    },
    "is_potentially_hazardous_asteroid": false,
    "close_approach_data": [
        {
            "close_approach_date": "2002-11-10",
            "close_approach_date_full": "2002-Nov-10 10:07",
            "epoch_date_close_approach": 1036922820000,
            "relative_velocity": {
                "kilometers_per_second": "20.4675218088",
                "kilometers_per_hour": "73683.0785117588",
                "miles_per_hour": "45783.7995341537"
            },
            "miss_distance": {
                "astronomical": "0.4574372474",
                "lunar": "177.9430892386",
                "kilometers": "68431637.869703038",
                "miles": "42521448.0264884044"
            },
            "orbiting_body": "Earth"
        },
        {
            "close_approach_date": "2008-08-07",
            "close_approach_date_full": "2008-Aug-07 16:21",
            "epoch_date_close_approach": 1218126060000,
            "relative_velocity": {
                "kilometers_per_second": "5.0179955998",
                "kilometers_per_hour": "18064.7841593983",
                "miles_per_hour": "11224.7543572661"
            },
            "miss_distance": {
                "astronomical": "0.0706813425",
                "lunar": "27.4950422325",
                "kilometers": "10573778.286740475",
                "miles": "6570241.161249555"
            },
            "orbiting_body": "Mars"
        },
        {
            "close_approach_date": "2010-10-09",
            "close_approach_date_full": "2010-Oct-09 18:53",
            "epoch_date_close_approach": 1286650380000,
            "relative_velocity": {
                "kilometers_per_second": "6.8000313779",
                "kilometers_per_hour": "24480.1129605881",
                "miles_per_hour": "15210.9901893166"
            },
            "miss_distance": {
                "astronomical": "0.0110386302",
                "lunar": "4.2940271478",
                "kilometers": "1651355.565637674",
                "miles": "1026104.7673769412"
            },
            "orbiting_body": "Earth"
        }
    ],
    "orbital_data": {
        "orbit_id": "7",
        "orbit_determination_date": "2017-04-06 08:56:11",
        "first_observation_date": "2010-10-17",
        "last_observation_date": "2010-11-01",
        "data_arc_in_days": 15,
        "observations_used": 18,
        "orbit_uncertainty": "8",
        "minimum_orbit_intersection": ".0011628",
        "jupiter_tisserand_invariant": "4.793",
        "epoch_osculation": "2455490.5",
        "eccentricity": ".3078792239040222",
        "semi_major_axis": "1.362496491058527",
        "inclination": ".6306319765527958",
        "ascending_node_longitude": "295.4183660905209",
        "orbital_period": "580.9001860711446",
        "perihelion_distance": ".9430121288194742",
        "perihelion_argument": "40.06179534146947",
        "aphelion_distance": "1.78198085329758",
        "perihelion_time": "2455444.935594203401",
        "mean_anomaly": "28.23752940710315",
        "mean_motion": ".6197278097547548",
        "equinox": "J2000",
        "orbit_class": {
            "orbit_class_type": "APO",
            "orbit_class_description": "Near-Earth asteroid orbits which cross the Earth’s orbit similar to that of 1862 Apollo",
            "orbit_class_range": "a (semi-major axis) > 1.0 AU; q (perihelion) < 1.017 AU"
        }
    },
    "is_sentry_object": false
}